[{"OBJECT_NAME":"STARLINK-30880","OBJECT_ID":"2023-171C","EPOCH":"2026-03-09T22:00:01.999584","MEAN_MOTION":15.2672663,"ECCENTRICITY":0.00016401,"INCLINATION":42.9994,"RA_OF_ASC_NODE":283.3086,"ARG_OF_PERICENTER":266.0454,"MEAN_ANOMALY":208.5229,"EPHEMERIS_TYPE":0,"CLASSIFICATION_TYPE":"U","NORAD_CAT_ID":58232,"ELEMENT_SET_NO":999,"REV_AT_EPOCH":563,"BSTAR":0.00085727415,"MEAN_MOTION_DOT":0.00022797,"MEAN_MOTION_DDOT":0},{"OBJECT_NAME":"ELECTRON KICK STAGE R\/B","OBJECT_ID":"2022-147B","EPOCH":"2026-03-09T22:28:20.187264","MEAN_MOTION":15.28920172,"ECCENTRICITY":0.00095089,"INCLINATION":97.642,"RA_OF_ASC_NODE":85.1135,"ARG_OF_PERICENTER":110.4683,"MEAN_ANOMALY":249.7578,"EPHEMERIS_TYPE":0,"CLASSIFICATION_TYPE":"U","NORAD_CAT_ID":54228,"ELEMENT_SET_NO":999,"REV_AT_EPOCH":18390,"BSTAR":0.00083201931,"MEAN_MOTION_DOT":0.00023374,"MEAN_MOTION_DDOT":0}]
